[{"OBJECT_NAME":"SNUGLITE-III","OBJECT_ID":"2025-274M","EPOCH":"2026-03-09T18:38:00.597984","MEAN_MOTION":14.93615044,"ECCENTRICITY":0.00147171,"INCLINATION":97.744,"RA_OF_ASC_NODE":359.6505,"ARG_OF_PERICENTER":357.0951,"MEAN_ANOMALY":3.0181,"EPHEMERIS_TYPE":0,"CLASSIFICATION_TYPE":"U","NORAD_CAT_ID":66661,"ELEMENT_SET_NO":999,"REV_AT_EPOCH":1539,"BSTAR":0.00024849196,"MEAN_MOTION_DOT":2.571e-5,"MEAN_MOTION_DDOT":0},{"OBJECT_NAME":"SL-14 R\/B","OBJECT_ID":"1986-018B","EPOCH":"2026-03-09T17:21:36.966528","MEAN_MOTION":14.86680008,"ECCENTRICITY":0.00180747,"INCLINATION":82.5187,"RA_OF_ASC_NODE":182.8859,"ARG_OF_PERICENTER":65.0322,"MEAN_ANOMALY":295.277,"EPHEMERIS_TYPE":0,"CLASSIFICATION_TYPE":"U","NORAD_CAT_ID":16612,"ELEMENT_SET_NO":999,"REV_AT_EPOCH":4335,"BSTAR":7.8697814e-5,"MEAN_MOTION_DOT":7.25e-6,"MEAN_MOTION_DDOT":0}]
